STARLINK-5114           
1 54003U 22125AR  26068.67832207 -.00000798  00000+0 -32045-4 0  9994
2 54003  53.2166 213.9720 0001252  89.6387 270.4749 15.08839406189467
CSC-1                   
1 58022U 23155G   26068.74030489  .00008819  00000+0  54557-3 0  9994
2 58022  97.5446 139.7305 0007504 212.9992 147.0770 15.10035960132723
